NORAD_CAT_ID,OBJECT_NAME,OBJECT_TYPE,EPOCH,MEAN_MOTION,ECCENTRICITY,INCLINATION,RA_OF_ASC_NODE,ARG_OF_PERICENTER,MEAN_ANOMALY,BSTAR,MEAN_MOTION_DOT,MEAN_MOTION_DDOT,TLE_LINE0,TLE_LINE1,TLE_LINE2,SEMIMAJOR_AXIS,PERIOD,APOGEE,PERIGEE,DECAYED
53934.0,STARLINK-4775,PAYLOAD,2022-11-18 14:00:01,15.73206281,0.000447,53.2157,342.6691,359.7602,123.8179,0.00015464,0.00021149,0.0,0 STARLINK-4775,1 53934U 22119BA  22322.58334491  .00021149  00000-0  15464-3 0  9997,2 53934  53.2157 342.6691 0004470 359.7602 123.8179 15.73206281  9035,6727.877,91.533,352.75,346.735,0.0
53934.0,STARLINK-4775,PAYLOAD,2022-11-18 22:00:00,15.73191975,0.0004163,53.2158,341.0175,359.8281,212.71,-1.318e-05,-2.474e-05,0.0,0 STARLINK-4775,1 53934U 22119BA  22322.91667824 -.00002474  00000-0 -13180-4 0  9999,2 53934  53.2158 341.0175 0004163 359.8281 212.7100 15.73191975  1306,6727.918000000002,91.534,352.584,346.982,0.0
53934.0,STARLINK-4775,PAYLOAD,2022-11-19 06:00:00,15.73177222,0.0004304,53.216,339.3693,3.5405,297.9256,0.00016351,0.00022373,0.0,0 STARLINK-4775,1 53934U 22119BA  22323.25001157  .00022373  00000-0  16351-3 0  9998,2 53934  53.2160 339.3693 0004304   3.5405 297.9256 15.73177222  9137,6727.96,91.535,352.721,346.92900000000014,0.0
53934.0,STARLINK-4775,PAYLOAD,2022-11-19 14:00:01,15.73218703,0.0004485,53.2157,337.7205,3.1984,27.1668,-4.066e-05,-6.336e-05,0.0,0 STARLINK-4775,1 53934U 22119BA  22323.58334491 -.00006336  00000-0 -40660-4 0  9998,2 53934  53.2157 337.7205 0004485   3.1984  27.1668 15.73218703  1303,6727.842,91.532,352.724,346.689,0.0
53934.0,STARLINK-4775,PAYLOAD,2022-11-19 22:00:00,15.73163072,0.0004117,53.2157,336.0691,2.6311,116.6988,0.00062172,0.00087438,0.0,0 STARLINK-4775,1 53934U 22119BA  22323.91667824  .00087438  00000-0  62172-3 0  9995,2 53934  53.2157 336.0691 0004117   2.6311 116.6988 15.73163072  1301,6728.0,91.535,352.635,347.096,0.0
53934.0,STARLINK-4775,PAYLOAD,2022-11-20 14:00:01,15.73153339,0.0004317,53.2148,332.7718,359.5191,297.66,0.00010753,0.0001447,0.0,0 STARLINK-4775,1 53934U 22119BA  22324.58334491  .00014470  00000-0  10753-3 0  9994,2 53934  53.2148 332.7718 0004317 359.5191 297.6600 15.73153339  9344,6728.028,91.536,352.798,346.98900000000015,0.0
53934.0,STARLINK-4775,PAYLOAD,2022-11-20 22:00:00,15.73145151,0.0004038,53.215,331.1204,359.6564,26.4069,0.00058869,0.00082647,0.0,0 STARLINK-4775,1 53934U 22119BA  22324.91667824  .00082647  00000-0  58869-3 0  9991,2 53934  53.2150 331.1204 0004038 359.6564  26.4069 15.73145151  1303,6728.052,91.536,352.6330000000001,347.2,0.0
53934.0,STARLINK-4775,PAYLOAD,2022-11-21 06:00:00,15.73214854,0.0004223,53.215,329.4724,359.8726,115.1074,-0.00038936,-0.00054979,0.0,0 STARLINK-4775,1 53934U 22119BA  22325.25001157 -.00054979  00000-0 -38936-3 0  9992,2 53934  53.2150 329.4724 0004223 359.8726 115.1074 15.73214854  9451,6727.853,91.532,352.559,346.87699999999984,0.0
53934.0,STARLINK-4775,PAYLOAD,2022-11-21 14:00:01,15.73196978,0.0004348,53.2149,327.8230000000001,359.2851,204.6128,0.00028456,0.00039513,0.0,0 STARLINK-4775,1 53934U 22119BA  22325.58334491  .00039513  00000-0  28456-3 0  9999,2 53934  53.2149 327.8230 0004348 359.2851 204.6128 15.73196978  1300,6727.904,91.533,352.694,346.843,0.0
53934.0,STARLINK-4775,PAYLOAD,2022-11-21 22:00:00,15.73219486,0.0004144,53.2149,326.1716,1.283,291.5593,0.0004572,0.00064112,0.0,0 STARLINK-4775,1 53934U 22119BA  22325.91667824  .00064112  00000-0  45720-3 0  9991,2 53934  53.2149 326.1716 0004144   1.2830 291.5593 15.73219486  1307,6727.84,91.532,352.49300000000005,346.917,0.0
53934.0,STARLINK-4775,PAYLOAD,2022-11-22 14:00:01,15.73218244,0.0004324,53.2141,322.8738,1.9063,108.9427,-0.00054668,-0.00076758,0.0,0 STARLINK-4775,1 53934U 22119BA  22326.58335648 -.00076758  00000-0 -54668-3 0  9993,2 53934  53.2141 322.8738 0004324   1.9063 108.9427 15.73218244  9666,6727.843000000003,91.532,352.617,346.7990000000001,0.0
53934.0,STARLINK-4775,PAYLOAD,2022-11-22 22:00:00,15.73134843,0.0003979,53.2142,321.2224,1.2499,198.4596,0.0006762,0.00095124,0.0,0 STARLINK-4775,1 53934U 22119BA  22326.91667824  .00095124  00000-0  67620-3 0  9992,2 53934  53.2142 321.2224 0003979   1.2499 198.4596 15.73134843  1307,6728.081,91.537,352.62300000000016,347.269,0.0
53934.0,STARLINK-4775,PAYLOAD,2022-11-23 06:00:00,15.73218476,0.0004201,53.2144,319.5746,1.8301,286.7673,-0.00048673,-0.00068474,0.0,0 STARLINK-4775,1 53934U 22119BA  22327.25001157 -.00068474  00000-0 -48673-3 0  9998,2 53934  53.2144 319.5746 0004201   1.8301 286.7673 15.73218476  9765,6727.842,91.532,352.534,346.881,0.0
53934.0,STARLINK-4775,PAYLOAD,2022-11-23 14:00:01,15.73181602,0.0004283,53.2144,317.9247,0.4223,17.0918,0.00016674,0.00022832,0.0,0 STARLINK-4775,1 53934U 22119BA  22327.58334491  .00022832  00000-0  16674-3 0  9996,2 53934  53.2144 317.9247 0004283   0.4223  17.0918 15.73181602  1300,6727.948,91.534,352.694,346.931,0.0
53934.0,STARLINK-4775,PAYLOAD,2022-11-23 22:00:00,15.73205433,0.0004049,53.2145,316.2735,1.8461,104.5828,0.00026836,0.00037229,0.0,0 STARLINK-4775,1 53934U 22119BA  22327.91667824  .00037229  00000-0  26836-3 0  9999,2 53934  53.2145 316.2735 0004049   1.8461 104.5828 15.73205433  9875,6727.88,91.533,352.469,347.021,0.0
53934.0,STARLINK-4775,PAYLOAD,2022-11-24 06:00:02,15.73195431,0.0004308,53.2144,314.6257,1.0921,194.3644,-3.1301e-05,-5.017e-05,0.0,0 STARLINK-4775,1 53934U 22119BA  22328.25002315 -.00005017  00000-0 -31301-4 0  9991,2 53934  53.2144 314.6257 0004308   1.0921 194.3644 15.73195431  9921,6727.908,91.533,352.672,346.875,0.0
53934.0,STARLINK-4775,PAYLOAD,2022-11-24 14:00:01,15.73253086,0.0004181,53.2139,312.9756,359.4112,284.8921,-0.00063161,-0.00088592,0.0,0 STARLINK-4775,1 53934U 22119BA  22328.58334491 -.00088592  00000-0 -63161-3 0  9997,2 53934  53.2139 312.9756 0004181 359.4112 284.8921 15.73253086  1309,6727.744000000002,91.53,352.422,346.796,0.0
53934.0,STARLINK-4775,PAYLOAD,2022-11-24 22:00:00,15.73158866,0.0003882,53.2142,311.3245,359.5167,13.7509,0.00063787,0.0008972999999999,0.0,0 STARLINK-4775,1 53934U 22119BA  22328.91667824  .00089730  00000-0  63787-3 0  9990,2 53934  53.2142 311.3245 0003882 359.5167  13.7509 15.73158866  1308,6728.012,91.536,352.48900000000015,347.266,0.0
53934.0,STARLINK-4775,PAYLOAD,2022-11-25 06:00:00,15.73236293,0.000409,53.2144,309.6769,359.329,102.8494,-0.00042639,-0.00060164,0.0,0 STARLINK-4775,1 53934U 22119BA  22329.25001157 -.00060164  00000-0 -42639-3 0  9994,2 53934  53.2144 309.6769 0004090 359.3290 102.8494 15.73236293 10087,6727.792,91.531,352.408,346.905,0.0
53934.0,STARLINK-4775,PAYLOAD,2022-11-25 14:00:01,15.73213992,0.000403,53.2145,308.0267,358.3706,192.7604,0.00017296,0.00023742,0.0,0 STARLINK-4775,1 53934U 22119BA  22329.58334491  .00023742  00000-0  17296-3 0  9990,2 53934  53.2145 308.0267 0004030 358.3706 192.7604 15.73213992 10137,6727.855,91.532,352.432,347.009,0.0
53934.0,STARLINK-4775,PAYLOAD,2022-11-25 22:00:00,15.7326179,0.0003835,53.2147,306.3756,1.0694,279.0131,4.4229e-05,5.605e-05,0.0,0 STARLINK-4775,1 53934U 22119BA  22329.91667824  .00005605  00000-0  44229-4 0  9991,2 53934  53.2147 306.3756 0003835   1.0694 279.0131 15.73261790  1305,6727.719,91.53,352.164,347.004,0.0
53934.0,STARLINK-4775,PAYLOAD,2022-11-26 14:00:01,15.73281935,0.0004011,53.2139,303.0775,4.2294,93.8443,-0.00092364,-0.0012881,0.0,0 STARLINK-4775,1 53934U 22119BA  22330.58334491 -.00128810  00000-0 -92364-3 0  9995,2 53934  53.2139 303.0775 0004011   4.2294  93.8443 15.73281935  1300,6727.6619999999975,91.528,352.225,346.82800000000015,0.0
53934.0,STARLINK-4775,PAYLOAD,2022-11-26 22:00:00,15.73183205,0.0003763,53.2142,301.4268,5.6706,181.3743,-0.00011931,-0.00017329,0.0,0 STARLINK-4775,1 53934U 22119BA  22330.91667824 -.00017329  00000-0 -11931-3 0  9994,2 53934  53.2142 301.4268 0003763   5.6706 181.3743 15.73183205 10340,6727.943,91.534,352.34,347.276,0.0
53934.0,STARLINK-4775,PAYLOAD,2022-11-27 14:00:01,15.73147066,0.0003971,53.2143,298.1291,2.2574,2.5584,0.0001336,0.00018131,0.0,0 STARLINK-4775,1 53934U 22119BA  22331.58334491  .00018131  00000-0  13360-3 0  9997,2 53934  53.2143 298.1291 0003971   2.2574   2.5584 15.73147066  1304,6728.045999999999,91.536,352.583,347.23900000000015,0.0
53934.0,STARLINK-4775,PAYLOAD,2022-11-27 22:00:00,15.731859900000002,0.0003818,53.2144,296.4787,4.275,89.4075,0.00019888,0.00027372,0.0,0 STARLINK-4775,1 53934U 22119BA  22331.91667824  .00027372  00000-0  19888-3 0  9991,2 53934  53.2144 296.4787 0003818   4.2750  89.4075 15.73185990  1301,6727.935,91.534,352.369,347.231,0.0
53934.0,STARLINK-4775,PAYLOAD,2022-11-28 06:00:00,15.73170558,0.0004069,53.214,294.8313,2.4249,180.1942,0.00017298,0.000237,0.0,0 STARLINK-4775,1 53934U 22119BA  22332.25001157  .00023700  00000-0  17298-3 0  9994,2 53934  53.2140 294.8313 0004069   2.4249 180.1942 15.73170558 10559,6727.979,91.535,352.582,347.107,0.0
53934.0,STARLINK-4775,PAYLOAD,2022-11-28 22:00:01,15.73172441,0.0003736,53.2137,291.5304,0.7107,359.7698,0.00046616,0.00065252,0.0,0 STARLINK-4775,1 53934U 22119BA  22332.91668981  .00065252  00000-0  46616-3 0  9995,2 53934  53.2137 291.5304 0003736   0.7107 359.7698 15.73172441 10659,6727.974,91.535,352.352,347.325,0.0
53934.0,STARLINK-4775,PAYLOAD,2022-11-29 14:00:01,15.73253471,0.0003918,53.2137,288.2318,2.942,175.4272,-0.00077889,-0.00108839,0.0,0 STARLINK-4775,1 53934U 22119BA  22333.58335648 -.00108839  00000-0 -77889-3 0  9997,2 53934  53.2137 288.2318 0003918   2.9420 175.4272 15.73253471 10767,6727.743,91.53,352.244,346.972,0.0
53934.0,STARLINK-4775,PAYLOAD,2022-11-29 22:00:00,15.73180005,0.000378,53.2137,286.5817,3.8737,263.3679,0.0003999,0.00055844,0.0,0 STARLINK-4775,1 53934U 22119BA  22333.91667824  .00055844  00000-0  39990-3 0  9994,2 53934  53.2137 286.5817 0003780   3.8737 263.3679 15.73180005 10816,6727.9519999999975,91.534,352.36,347.274,0.0
